$$SOE
2460147.500000000, A.D. 2023-Jul-22 00:00:00.0000, 1.928711826382336E+07, -4.150692023765204E+08, -4.079539822925037E+07,
2460154.500000000, A.D. 2023-Jul-29 00:00:00.0000, 3.024070123352805E+07, -4.136230565755054E+08, -4.250369193587503E+07,
2460161.500000000, A.D. 2023-Aug-05 00:00:00.0000, 4.117397271804258E+07, -4.118998109324488E+08, -4.418350746008795E+07,
2460168.500000000, A.D. 2023-Aug-12 00:00:00.0000, 5.207948761871909E+07, -4.098994357266251E+08, -4.583359210803992E+07,
2460175.500000000, A.D. 2023-Aug-19 00:00:00.0000, 6.294976128628524E+07, -4.076221331227944E+08, -4.745270746384150E+07,
2460182.500000000, A.D. 2023-Aug-26 00:00:00.0000, 7.377727780923854E+07, -4.050683403284479E+08, -4.903963106699279E+07,
2460189.500000000, A.D. 2023-Sep-02 00:00:00.0000, 8.455449852821229E+07, -4.022387324615026E+08, -5.059315810395023E+07,
2460196.500000000, A.D. 2023-Sep-09 00:00:00.0000, 9.527387079458794E+07, -3.991342251497033E+08, -5.211210311574709E+07,
2460203.500000000, A.D. 2023-Sep-16 00:00:00.0000, 1.059278371226805E+08, -3.957559769012821E+08, -5.359530173688731E+07,
2460210.500000000, A.D. 2023-Sep-23 00:00:00.0000, 1.165088451312360E+08, -3.921053909435635E+08, -5.504161247518638E+07,
2460217.500000000, A.D. 2023-Sep-30 00:00:00.0000, 1.270093579120023E+08, -3.881841153235803E+08, -5.644991839881991E+07,
2460224.500000000, A.D. 2023-Oct-07 00:00:00.0000, 1.374218624470912E+08, -3.839940417984549E+08, -5.781912855341972E+07,
2460231.500000000, A.D. 2023-Oct-14 00:00:00.0000, 1.477388770898214E+08, -3.795373068137089E+08, -5.914817946948005E+07,
2460238.500000000, A.D. 2023-Oct-21 00:00:00.0000, 1.579529613125733E+08, -3.748162929547555E+08, -6.043603691958618E+07,
2460245.500000000, A.D. 2023-Oct-28 00:00:00.0000, 1.680567262709957E+08, -3.698336286031051E+08, -6.168169760466762E+07,
2460252.500000000, A.D. 2023-Nov-04 00:00:00.0000, 1.780428449065477E+08, -3.645921865610155E+08, -6.288419071203175E+07,
2460259.500000000, A.D. 2023-Nov-11 00:00:00.0000, 1.879040617359947E+08, -3.590950822392471E+08, -6.404257940490532E+07,
2460266.500000000, A.D. 2023-Nov-18 00:00:00.0000, 1.976332025177358E+08, -3.533456714690106E+08, -6.515596226336673E+07,
2460273.500000000, A.D. 2023-Nov-25 00:00:00.0000, 2.072231838374236E+08, -3.473475479143326E+08, -6.622347467608806E+07,
2460280.500000000, A.D. 2023-Dec-02 00:00:00.0000, 2.166670226101286E+08, -3.411045400964406E+08, -6.724429018103218E+07,
2460287.500000000, A.D. 2023-Dec-09 00:00:00.0000, 2.259578455462403E+08, -3.346207080910589E+08, -6.821762176188813E+07,
2460294.500000000, A.D. 2023-Dec-16 00:00:00.0000, 2.350888988392124E+08, -3.279003398907481E+08, -6.914272312094183E+07,
2460301.500000000, A.D. 2023-Dec-23 00:00:00.0000, 2.440535583949082E+08, -3.209479467535021E+08, -7.001888990019745E+07,
2460308.500000000, A.D. 2023-Dec-30 00:00:00.0000, 2.528453392329427E+08, -3.137682565001670E+08, -7.084546063845965E+07,
2460315.500000000, A.D. 2024-Jan-06 00:00:00.0000, 2.614579022570273E+08, -3.063662071336454E+08, -7.162181749094391E+07,
2460322.500000000, A.D. 2024-Jan-13 00:00:00.0000, 2.698850615375682E+08, -2.987469425988472E+08, -7.234738714634620E+07,
2460329.500000000, A.D. 2024-Jan-20 00:00:00.0000, 2.781207933034770E+08, -2.909158076139186E+08, -7.302164179858103E+07,
2460336.500000000, A.D. 2024-Jan-27 00:00:00.0000, 2.861592445892935E+08, -2.828783409392564E+08, -7.364409993154135E+07,
2460343.500000000, A.D. 2024-Feb-03 00:00:00.0000, 2.939947410847665E+08, -2.746402680534083E+08, -7.421432695313202E+07,
2460350.500000000, A.D. 2024-Feb-10 00:00:00.0000, 3.016217944411026E+08, -2.662074935488391E+08, -7.473193572615433E+07,
2460357.500000000, A.D. 2024-Feb-17 00:00:00.0000, 3.090351091511796E+08, -2.575860932631214E+08, -7.519658700688271E+07,
2460364.500000000, A.D. 2024-Feb-24 00:00:00.0000, 3.162295890199833E+08, -2.487823061559408E+08, -7.560798979264247E+07,
2460371.500000000, A.D. 2024-Mar-02 00:00:00.0000, 3.232003432363407E+08, -2.398025259909919E+08, -7.596590158329442E+07,
2460378.500000000, A.D. 2024-Mar-09 00:00:00.0000, 3.299426921679011E+08, -2.306532929127396E+08, -7.627012857427184E+07,
2460385.500000000, A.D. 2024-Mar-16 00:00:00.0000, 3.364521732605199E+08, -2.213412847483919E+08, -7.652052580150300E+07,
2460392.500000000, A.D. 2024-Mar-23 00:00:00.0000, 3.427245469277987E+08, -2.118733069559985E+08, -7.671699713911524E+07,
2460399.500000000, A.D. 2024-Mar-30 00:00:00.0000, 3.487558001796623E+08, -2.022562812781534E+08, -7.685949494783679E+07,
2460406.500000000, A.D. 2024-Apr-06 00:00:00.0000, 3.545421482340277E+08, -1.924972364998160E+08, -7.694801967314847E+07,
2460413.500000000, A.D. 2024-Apr-13 00:00:00.0000, 3.600800376526554E+08, -1.826033005006147E+08, -7.698261965058258E+07,
2460420.500000000, A.D. 2024-Apr-20 00:00:00.0000, 3.653661500454304E+08, -1.725816909515343E+08, -7.696339081352252E+07,
2460427.500000000, A.D. 2024-Apr-27 00:00:00.0000, 3.703974048275743E+08, -1.624397052460838E+08, -7.689047621328041E+07,
2460434.500000000, A.D. 2024-May-04 00:00:00.0000, 3.751709611219020E+08, -1.521847103998467E+08, -7.676406542097403E+07,
2460441.500000000, A.D. 2024-May-11 00:00:00.0000, 3.796842190498144E+08, -1.418241330515564E+08, -7.658439384556077E+07,
2460448.500000000, A.D. 2024-May-18 00:00:00.0000, 3.839348204989324E+08, -1.313654495749233E+08, -7.635174197770777E+07,
2460455.500000000, A.D. 2024-May-25 00:00:00.0000, 3.879206493988488E+08, -1.208161763378154E+08, -7.606643456600222E+07,
2460462.500000000, A.D. 2024-Jun-01 00:00:00.0000, 3.916398315726583E+08, -1.101838601942165E+08, -7.572883973920637E+07,
2460469.500000000, A.D. 2024-Jun-08 00:00:00.0000, 3.950907344190907E+08, -9.947606925807562E+07, -7.533936810237406E+07,
2460476.500000000, A.D. 2024-Jun-15 00:00:00.0000, 3.982719668347564E+08, -8.870038343721162E+07, -7.489847180222428E+07,
2460483.500000000, A.D. 2024-Jun-22 00:00:00.0000, 4.011823783860735E+08, -7.786438357374313E+07, -7.440664337771650E+07,
2460490.500000000, A.D. 2024-Jun-29 00:00:00.0000, 4.038210556273484E+08, -6.697564103527740E+07, -7.386441435515828E+07,
2460497.500000000, A.D. 2024-Jul-06 00:00:00.0000, 4.061873182254127E+08, -5.604171025069371E+07, -7.327235403683141E+07,
2460504.500000000, A.D. 2024-Jul-13 00:00:00.0000, 4.082807168550160E+08, -4.507012138506688E+07, -7.263106843504730E+07,
2460511.500000000, A.D. 2024-Jul-20 00:00:00.0000, 4.101010308976224E+08, -3.406837202188968E+07, -7.194119908013821E+07,
2460518.500000000, A.D. 2024-Jul-27 00:00:00.0000, 4.116482653075958E+08, -2.304391882822956E+07, -7.120342172550283E+07,
2460525.500000000, A.D. 2024-Aug-03 00:00:00.0000, 4.129226469390485E+08, -1.200416959249334E+07, -7.041844501026274E+07,
2460532.500000000, A.D. 2024-Aug-10 00:00:00.0000, 4.139246205198561E+08, -9.564756521492489E+05, -6.958700909995759E+07,
2460539.500000000, A.D. 2024-Aug-17 00:00:00.0000, 4.146548443414181E+08, 1.009187529924508E+07, -6.870988431269561E+07,
2460546.500000000, A.D. 2024-Aug-24 00:00:00.0000, 4.151141857138109E+08, 2.113366599400909E+07, -6.778786973999134E+07,
2460553.500000000, A.D. 2024-Aug-31 00:00:00.0000, 4.153037163240569E+08, 3.216175589152436E+07, -6.682179188272472E+07,
2460560.500000000, A.D. 2024-Sep-07 00:00:00.0000, 4.152247078840907E+08, 4.316908711756545E+07, -6.581250332986183E+07,
2460567.500000000, A.D. 2024-Sep-14 00:00:00.0000, 4.148786281728101E+08, 5.414869103260231E+07, -6.476088141009521E+07,
2460574.500000000, A.D. 2024-Sep-21 00:00:00.0000, 4.142671354645587E+08, 6.509369584012102E+07, -6.366782660043842E+07,
2460581.500000000, A.D. 2024-Sep-28 00:00:00.0000, 4.133920708808159E+08, 7.599733200497451E+07, -6.253426091530489E+07,
2460588.500000000, A.D. 2024-Oct-05 00:00:00.0000, 4.122554523546153E+08, 8.685293548024999E+07, -6.136112661597385E+07,
2460595.500000000, A.D. 2024-Oct-12 00:00:00.0000, 4.108594698638214E+08, 9.765395172325867E+07, -6.014938496637555E+07,
2460602.500000000, A.D. 2024-Oct-19 00:00:00.0000, 4.092064802006326E+08, 1.083939402330550E+08, -5.890001489956024E+07,
2460609.500000000, A.D. 2024-Oct-26 00:00:00.0000, 4.072990012640162E+08, 1.190665788124448E+08, -5.761401166044176E+07,
2460616.500000000, A.D. 2024-Nov-02 00:00:00.0000, 4.051397061513958E+08, 1.296656674114571E+08, -5.629238546362420E+07,
2460623.500000000, A.D. 2024-Nov-09 00:00:00.0000, 4.027314171649772E+08, 1.401851315791902E+08, -5.493616017646046E+07,
2460630.500000000, A.D. 2024-Nov-16 00:00:00.0000, 4.000770997770502E+08, 1.506190255311187E+08, -5.354637203246223E+07,
2460637.500000000, A.D. 2024-Nov-23 00:00:00.0000, 3.971798566191305E+08, 1.609615347892055E+08, -5.212406838591363E+07,
2460644.500000000, A.D. 2024-Nov-30 00:00:00.0000, 3.940429217205024E+08, 1.712069783593636E+08, -5.067030653242159E+07,
2460651.500000000, A.D. 2024-Dec-07 00:00:00.0000, 3.906696554309450E+08, 1.813498108730121E+08, -4.918615260111472E+07,
2460658.500000000, A.D. 2024-Dec-14 00:00:00.0000, 3.870635393499928E+08, 1.913846259226997E+08, -4.767268035593668E+07,
2460665.500000000, A.D. 2024-Dec-21 00:00:00.0000, 3.832281689539638E+08, 2.013061593606234E+08, -4.613096979507510E+07,
2460672.500000000, A.D. 2024-Dec-28 00:00:00.0000, 3.791672459057289E+08, 2.111092896031266E+08, -4.456210597290139E+07,
2460679.500000000, A.D. 2025-Jan-04 00:00:00.0000, 3.748845726536484E+08, 2.207890373263062E+08, -4.296717808900805E+07,
2460686.500000000, A.D. 2025-Jan-11 00:00:00.0000, 3.703840475058379E+08, 2.303405662242127E+08, -4.134727854190180E+07,
2460693.500000000, A.D. 2025-Jan-18 00:00:00.0000, 3.656696592727465E+08, 2.397591839240142E+08, -3.970350193895454E+07,
2460700.500000000, A.D. 2025-Jan-25 00:00:00.0000, 3.607454817323576E+08, 2.490403425956554E+08, -3.803694412436226E+07,
2460707.500000000, A.D. 2025-Feb-01 00:00:00.0000, 3.556156681170867E+08, 2.581796392365960E+08, -3.634870124523985E+07,
2460714.500000000, A.D. 2025-Feb-08 00:00:00.0000, 3.502844456884071E+08, 2.671728156613615E+08, -3.463986885951887E+07,
$$EOE